[{"OBJECT_NAME":"ONEWEB-0159","OBJECT_ID":"2021-025W","EPOCH":"2026-05-12T05:38:33.878976","MEAN_MOTION":13.13469349,"ECCENTRICITY":0.0001478,"INCLINATION":87.8956,"RA_OF_ASC_NODE":327.3748,"ARG_OF_PERICENTER":88.9067,"MEAN_ANOMALY":271.2232,"EPHEMERIS_TYPE":0,"CLASSIFICATION_TYPE":"U","NORAD_CAT_ID":48062,"ELEMENT_SET_NO":999,"REV_AT_EPOCH":24888,"BSTAR":-0.00034595,"MEAN_MOTION_DOT":-1.14e-06,"MEAN_MOTION_DDOT":0.0},{"OBJECT_NAME":"ONEWEB-0164","OBJECT_ID":"2021-025X","EPOCH":"2026-05-12T07:01:27.628032","MEAN_MOTION":13.13471705,"ECCENTRICITY":0.0001805,"INCLINATION":87.8955,"RA_OF_ASC_NODE":327.3697,"ARG_OF_PERICENTER":86.4537,"MEAN_ANOMALY":273.6798,"EPHEMERIS_TYPE":0,"CLASSIFICATION_TYPE":"U","NORAD_CAT_ID":48063,"ELEMENT_SET_NO":999,"REV_AT_EPOCH":24887,"BSTAR":0.00088915,"MEAN_MOTION_DOT":3.37e-06,"MEAN_MOTION_DDOT":0.0},{"OBJECT_NAME":"ONEWEB-0167","OBJECT_ID":"2021-025Y","EPOCH":"2026-05-12T05:51:59.668704","MEAN_MOTION":13.13469776,"ECCENTRICITY":0.0001259,"INCLINATION":87.8946,"RA_OF_ASC_NODE":327.3925,"ARG_OF_PERICENTER":70.1508,"MEAN_ANOMALY":289.9757,"EPHEMERIS_TYPE":0,"CLASSIFICATION_TYPE":"U","NORAD_CAT_ID":48064,"ELEMENT_SET_NO":999,"REV_AT_EPOCH":24885,"BSTAR":-0.00022687,"MEAN_MOTION_DOT":-7e-07,"MEAN_MOTION_DDOT":0.0},{"OBJECT_NAME":"ONEWEB-0166","OBJECT_ID":"2021-025Z","EPOCH":"2026-05-12T00:55:48.019008","MEAN_MOTION":13.1346988,"ECCENTRICITY":0.0001725,"INCLINATION":87.8957,"RA_OF_ASC_NODE":327.4013,"ARG_OF_PERICENTER":95.3436,"MEAN_ANOMALY":264.789,"EPHEMERIS_TYPE":0,"CLASSIFICATION_TYPE":"U","NORAD_CAT_ID":48065,"ELEMENT_SET_NO":999,"REV_AT_EPOCH":24890,"BSTAR":-0.00054582,"MEAN_MOTION_DOT":-1.87e-06,"MEAN_MOTION_DDOT":0.0},{"OBJECT_NAME":"ONEWEB-0151","OBJECT_ID":"2021-025AA","EPOCH":"2026-05-12T06:27:18.953568","MEAN_MOTION":13.13471703,"ECCENTRICITY":0.0001703,"INCLINATION":87.8943,"RA_OF_ASC_NODE":327.376,"ARG_OF_PERICENTER":85.0937,"MEAN_ANOMALY":275.0387,"EPHEMERIS_TYPE":0,"CLASSIFICATION_TYPE":"U","NORAD_CAT_ID":48066,"ELEMENT_SET_NO":999,"REV_AT_EPOCH":24887,"BSTAR":-0.00056705,"MEAN_MOTION_DOT":-1.94e-06,"MEAN_MOTION_DDOT":0.0},{"OBJECT_NAME":"ONEWEB-0170","OBJECT_ID":"2021-025AB","EPOCH":"2026-05-12T06:39:30.989664","MEAN_MOTION":13.13471623,"ECCENTRICITY":0.0001924,"INCLINATION":87.8943,"RA_OF_ASC_NODE":327.3761,"ARG_OF_PERICENTER":75.2882,"MEAN_ANOMALY":284.846,"EPHEMERIS_TYPE":0,"CLASSIFICATION_TYPE":"U","NORAD_CAT_ID":48067,"ELEMENT_SET_NO":999,"REV_AT_EPOCH":24883,"BSTAR":-9.004100000000001e-05,"MEAN_MOTION_DOT":-2e-07,"MEAN_MOTION_DDOT":0.0},{"OBJECT_NAME":"ONEWEB-0168","OBJECT_ID":"2021-025AC","EPOCH":"2026-05-12T06:17:33.970272","MEAN_MOTION":13.13472555,"ECCENTRICITY":0.0001597,"INCLINATION":87.8954,"RA_OF_ASC_NODE":327.3755,"ARG_OF_PERICENTER":92.372,"MEAN_ANOMALY":267.7592,"EPHEMERIS_TYPE":0,"CLASSIFICATION_TYPE":"U","NORAD_CAT_ID":48068,"ELEMENT_SET_NO":999,"REV_AT_EPOCH":24884,"BSTAR":-0.0006047,"MEAN_MOTION_DOT":-2.08e-06,"MEAN_MOTION_DDOT":0.0},{"OBJECT_NAME":"ONEWEB-0173","OBJECT_ID":"2021-025AD","EPOCH":"2026-05-12T06:05:22.971840","MEAN_MOTION":13.13471206,"ECCENTRICITY":0.0001368,"INCLINATION":87.8949,"RA_OF_ASC_NODE":327.3812,"ARG_OF_PERICENTER":87.787,"MEAN_ANOMALY":272.3416,"EPHEMERIS_TYPE":0,"CLASSIFICATION_TYPE":"U","NORAD_CAT_ID":48069,"ELEMENT_SET_NO":999,"REV_AT_EPOCH":24908,"BSTAR":-0.00072966,"MEAN_MOTION_DOT":-2.54e-06,"MEAN_MOTION_DDOT":0.0},{"OBJECT_NAME":"ONEWEB-0171","OBJECT_ID":"2021-025AE","EPOCH":"2026-05-12T01:29:55.052736","MEAN_MOTION":13.1347233,"ECCENTRICITY":0.0001731,"INCLINATION":87.8944,"RA_OF_ASC_NODE":327.4285,"ARG_OF_PERICENTER":85.7046,"MEAN_ANOMALY":274.4281,"EPHEMERIS_TYPE":0,"CLASSIFICATION_TYPE":"U","NORAD_CAT_ID":48070,"ELEMENT_SET_NO":999,"REV_AT_EPOCH":24887,"BSTAR":0.00088243,"MEAN_MOTION_DOT":3.35e-06,"MEAN_MOTION_DDOT":0.0},{"OBJECT_NAME":"ONEWEB-0172","OBJECT_ID":"2021-025AF","EPOCH":"2026-05-12T06:29:45.216672","MEAN_MOTION":13.13469478,"ECCENTRICITY":0.0001607,"INCLINATION":87.8952,"RA_OF_ASC_NODE":327.3747,"ARG_OF_PERICENTER":85.704,"MEAN_ANOMALY":274.4273,"EPHEMERIS_TYPE":0,"CLASSIFICATION_TYPE":"U","NORAD_CAT_ID":48071,"ELEMENT_SET_NO":999,"REV_AT_EPOCH":24979,"BSTAR":-0.0008281699999999999,"MEAN_MOTION_DOT":-2.9e-06,"MEAN_MOTION_DDOT":0.0},{"OBJECT_NAME":"ONEWEB-0174","OBJECT_ID":"2021-025AG","EPOCH":"2026-05-12T06:02:56.287968","MEAN_MOTION":13.13469942,"ECCENTRICITY":0.000172,"INCLINATION":87.8945,"RA_OF_ASC_NODE":327.3788,"ARG_OF_PERICENTER":93.8864,"MEAN_ANOMALY":266.2461,"EPHEMERIS_TYPE":0,"CLASSIFICATION_TYPE":"U","NORAD_CAT_ID":48072,"ELEMENT_SET_NO":999,"REV_AT_EPOCH":24911,"BSTAR":-0.0009368600000000001,"MEAN_MOTION_DOT":-3.29e-06,"MEAN_MOTION_DDOT":0.0},{"OBJECT_NAME":"ONEWEB-0175","OBJECT_ID":"2021-025AH","EPOCH":"2026-05-12T01:17:44.215872","MEAN_MOTION":13.13471781,"ECCENTRICITY":0.0001708,"INCLINATION":87.8954,"RA_OF_ASC_NODE":327.4002,"ARG_OF_PERICENTER":77.2989,"MEAN_ANOMALY":282.8331,"EPHEMERIS_TYPE":0,"CLASSIFICATION_TYPE":"U","NORAD_CAT_ID":48073,"ELEMENT_SET_NO":999,"REV_AT_EPOCH":24874,"BSTAR":0.00061607,"MEAN_MOTION_DOT":2.38e-06,"MEAN_MOTION_DDOT":0.0},{"OBJECT_NAME":"ONEWEB-0177","OBJECT_ID":"2021-025AJ","EPOCH":"2026-05-12T01:34:47.774208","MEAN_MOTION":13.13468952,"ECCENTRICITY":0.00016,"INCLINATION":87.895,"RA_OF_ASC_NODE":327.4177,"ARG_OF_PERICENTER":94.7165,"MEAN_ANOMALY":265.4147,"EPHEMERIS_TYPE":0,"CLASSIFICATION_TYPE":"U","NORAD_CAT_ID":48074,"ELEMENT_SET_NO":999,"REV_AT_EPOCH":24893,"BSTAR":0.0009881100000000002,"MEAN_MOTION_DOT":3.74e-06,"MEAN_MOTION_DDOT":0.0},{"OBJECT_NAME":"ONEWEB-0178","OBJECT_ID":"2021-025AK","EPOCH":"2026-05-12T05:41:13.558272","MEAN_MOTION":13.13469795,"ECCENTRICITY":0.0001553,"INCLINATION":87.8936,"RA_OF_ASC_NODE":327.4013,"ARG_OF_PERICENTER":81.6024,"MEAN_ANOMALY":278.5281,"EPHEMERIS_TYPE":0,"CLASSIFICATION_TYPE":"U","NORAD_CAT_ID":48075,"ELEMENT_SET_NO":999,"REV_AT_EPOCH":24900,"BSTAR":0.00036147,"MEAN_MOTION_DOT":1.45e-06,"MEAN_MOTION_DDOT":0.0},{"OBJECT_NAME":"ONEWEB-0108","OBJECT_ID":"2021-025AL","EPOCH":"2026-05-12T06:32:12.316992","MEAN_MOTION":13.13471531,"ECCENTRICITY":0.0001997,"INCLINATION":87.8955,"RA_OF_ASC_NODE":327.3664,"ARG_OF_PERICENTER":91.9939,"MEAN_ANOMALY":268.1419,"EPHEMERIS_TYPE":0,"CLASSIFICATION_TYPE":"U","NORAD_CAT_ID":48076,"ELEMENT_SET_NO":999,"REV_AT_EPOCH":24893,"BSTAR":-0.0005411000000000001,"MEAN_MOTION_DOT":-1.85e-06,"MEAN_MOTION_DDOT":0.0},{"OBJECT_NAME":"ONEWEB-0169","OBJECT_ID":"2021-025AM","EPOCH":"2026-05-12T05:28:50.200320","MEAN_MOTION":13.1347138,"ECCENTRICITY":0.000173,"INCLINATION":87.8947,"RA_OF_ASC_NODE":327.3864,"ARG_OF_PERICENTER":92.4041,"MEAN_ANOMALY":267.7286,"EPHEMERIS_TYPE":0,"CLASSIFICATION_TYPE":"U","NORAD_CAT_ID":48077,"ELEMENT_SET_NO":999,"REV_AT_EPOCH":24758,"BSTAR":0.00078221,"MEAN_MOTION_DOT":2.98e-06,"MEAN_MOTION_DDOT":0.0}]