ONEWEB-0159             
1 48062U 21025W   26132.23511434 -.00000114  00000+0 -34595-3 0  9993
2 48062  87.8956 327.3748 0001478  88.9067 271.2232 13.13469349248889
ONEWEB-0164             
1 48063U 21025X   26132.29268088  .00000337  00000+0  88915-3 0  9994
2 48063  87.8955 327.3697 0001805  86.4537 273.6798 13.13471705248872
ONEWEB-0167             
1 48064U 21025Y   26132.24444061 -.00000070  00000+0 -22687-3 0  9997
2 48064  87.8946 327.3925 0001259  70.1508 289.9757 13.13469776248856
ONEWEB-0166             
1 48065U 21025Z   26132.03875022 -.00000187  00000+0 -54582-3 0  9998
2 48065  87.8957 327.4013 0001725  95.3436 264.7890 13.13469880248906
ONEWEB-0151             
1 48066U 21025AA  26132.26896937 -.00000194  00000+0 -56705-3 0  9999
2 48066  87.8943 327.3760 0001703  85.0937 275.0387 13.13471703248877
ONEWEB-0170             
1 48067U 21025AB  26132.27744201 -.00000020  00000+0 -90041-4 0  9997
2 48067  87.8943 327.3761 0001924  75.2882 284.8460 13.13471623248831
ONEWEB-0168             
1 48068U 21025AC  26132.26219873 -.00000208  00000+0 -60470-3 0  9999
2 48068  87.8954 327.3755 0001597  92.3720 267.7592 13.13472555248846
ONEWEB-0173             
1 48069U 21025AD  26132.25373810 -.00000254  00000+0 -72966-3 0  9995
2 48069  87.8949 327.3812 0001368  87.7870 272.3416 13.13471206249081
ONEWEB-0171             
1 48070U 21025AE  26132.06244274  .00000335  00000+0  88243-3 0  9990
2 48070  87.8944 327.4285 0001731  85.7046 274.4281 13.13472330248878
ONEWEB-0172             
1 48071U 21025AF  26132.27066223 -.00000290  00000+0 -82817-3 0  9993
2 48071  87.8952 327.3747 0001607  85.7040 274.4273 13.13469478249798
ONEWEB-0174             
1 48072U 21025AG  26132.25204037 -.00000329  00000+0 -93686-3 0  9998
2 48072  87.8945 327.3788 0001720  93.8864 266.2461 13.13469942249116
ONEWEB-0175             
1 48073U 21025AH  26132.05398398  .00000238  00000+0  61607-3 0  9996
2 48073  87.8954 327.4002 0001708  77.2989 282.8331 13.13471781248749
ONEWEB-0177             
1 48074U 21025AJ  26132.06583072  .00000374  00000+0  98811-3 0  9991
2 48074  87.8950 327.4177 0001600  94.7165 265.4147 13.13468952248939
ONEWEB-0178             
1 48075U 21025AK  26132.23696248  .00000145  00000+0  36147-3 0  9991
2 48075  87.8936 327.4013 0001553  81.6024 278.5281 13.13469795249008
ONEWEB-0108             
1 48076U 21025AL  26132.27236478 -.00000185  00000+0 -54110-3 0  9997
2 48076  87.8955 327.3664 0001997  91.9939 268.1419 13.13471531248932
ONEWEB-0169             
1 48077U 21025AM  26132.22835880  .00000298  00000+0  78221-3 0  9997
2 48077  87.8947 327.3864 0001730  92.4041 267.7286 13.13471380247580
